NORAD_CAT_ID,OBJECT_NAME,OBJECT_TYPE,EPOCH,MEAN_MOTION,ECCENTRICITY,INCLINATION,RA_OF_ASC_NODE,ARG_OF_PERICENTER,MEAN_ANOMALY,BSTAR,MEAN_MOTION_DOT,MEAN_MOTION_DDOT,TLE_LINE0,TLE_LINE1,TLE_LINE2,SEMIMAJOR_AXIS,PERIOD,APOGEE,PERIGEE,DECAYED
54783.0,STARLINK-5439,PAYLOAD,2024-06-20 03:46:19,15.08850992,9.85e-05,53.2178,326.2065,89.2294,270.8811,0.00017398,2.483e-05,0.0,0 STARLINK-5439,1 54783U 22175AB  24172.15716477  .00002483  00000-0  17398-3 0  9996,2 54783  53.2178 326.2065 0000985  89.2294 270.8811 15.08850992 83235,6917.847,95.437,540.393,539.03,0.0
54783.0,STARLINK-5439,PAYLOAD,2024-06-20 14:54:01,15.08843025,0.0001787,53.2179,324.1274,82.9034,277.2162,0.00018817,2.708e-05,0.0,0 STARLINK-5439,1 54783U 22175AB  24172.62085198  .00002708  00000-0  18817-3 0  9994,2 54783  53.2179 324.1274 0001787  82.9034 277.2162 15.08843025 85464,6917.871,95.437,540.972,538.5,0.0
54783.0,STARLINK-5439,PAYLOAD,2024-06-20 16:29:24,15.08846102,0.0001183,53.2179,323.829,106.1142,253.9981,0.00016965,2.414e-05,0.0,0 STARLINK-5439,1 54783U 22175AB  24172.68708815  .00002414  00000-0  16965-3 0  9994,2 54783  53.2179 323.8290 0001183 106.1142 253.9981 15.08846102 83318,6917.862,95.437,540.545,538.908,0.0
54783.0,STARLINK-5439,PAYLOAD,2024-06-21 13:09:25,15.08841512,0.0001238,53.2177,319.9654,91.1516,268.9618,0.00014194,1.972e-05,0.0,0 STARLINK-5439,1 54783U 22175AB  24173.54821152  .00001972  00000-0  14194-3 0  9990,2 54783  53.2177 319.9654 0001238  91.1516 268.9618 15.08841512 83442,6917.876,95.437,540.597,538.884,0.0
54783.0,STARLINK-5439,PAYLOAD,2024-06-21 14:44:48,15.08841125,0.0001158,53.2164,319.6678,80.2211,279.8912,0.00014374,2.001e-05,0.0,0 STARLINK-5439,1 54783U 22175AB  24173.61445182  .00002001  00000-0  14374-3 0  9997,2 54783  53.2164 319.6678 0001158  80.2211 279.8912 15.08841125 85612,6917.877,95.437,540.543,538.941,0.0
54783.0,STARLINK-5439,PAYLOAD,2024-06-21 19:30:57,15.08842041,0.0001182,53.2173,318.7752,82.7081,277.4045,9.4047e-05,1.209e-05,0.0,0 STARLINK-5439,1 54783U 22175AB  24173.81317121  .00001209  00000-0  94047-4 0  9995,2 54783  53.2173 318.7752 0001182  82.7081 277.4045 15.08842041 85646,6917.874,95.437,540.557,538.921,0.0
54783.0,STARLINK-5439,PAYLOAD,2024-06-22 13:00:12,15.08837485,0.0001176,53.2169,315.5041,79.4517,280.6608,8.3044e-05,1.034e-05,0.0,0 STARLINK-5439,1 54783U 22175AB  24174.54181411  .00001034  00000-0  83044-4 0  9998,2 54783  53.2169 315.5041 0001176  79.4517 280.6608 15.08837485 83596,6917.888,95.438,540.567,538.94,0.0
54783.0,STARLINK-5439,PAYLOAD,2024-06-22 14:35:35,15.08837098,0.0001169,53.217,315.2068,79.7414,280.371,7.3406e-05,8.81e-06,0.0,0 STARLINK-5439,1 54783U 22175AB  24174.60805434  .00000881  00000-0  73406-4 0  9993,2 54783  53.2170 315.2068 0001169  79.7414 280.3710 15.08837098 85767,6917.889,95.438,540.563,538.946,0.0
54783.0,STARLINK-5439,PAYLOAD,2024-06-22 19:21:45,15.08841147,0.0001163,53.218,314.314,93.0356,267.077,6.4756e-05,7.43e-06,0.0,0 STARLINK-5439,1 54783U 22175AB  24174.80677197  .00000743  00000-0  64756-4 0  9993,2 54783  53.2180 314.3140 0001163  93.0356 267.0770 15.08841147 85798,6917.877,95.437,540.546,538.937,0.0
54783.0,STARLINK-5439,PAYLOAD,2024-06-23 14:26:23,15.08835528,0.0001216,53.2182,310.7447,104.7827,255.33,7.2413e-05,8.65e-06,0.0,0 STARLINK-5439,1 54783U 22175AB  24175.60165567  .00000865  00000-0  72413-4 0  9999,2 54783  53.2182 310.7447 0001216 104.7827 255.3300 15.08835528 85911,6917.894,95.438,540.6,538.918,0.0
54783.0,STARLINK-5439,PAYLOAD,2024-06-23 16:01:46,15.08835771,0.0001196,53.2183,310.4474,102.0543,258.0583,7.0287e-05,8.31e-06,0.0,0 STARLINK-5439,1 54783U 22175AB  24175.66789574  .00000831  00000-0  70287-4 0  9995,2 54783  53.2183 310.4474 0001196 102.0543 258.0583 15.08835771 83766,6917.893,95.438,540.586,538.931,0.0
54783.0,STARLINK-5439,PAYLOAD,2024-06-24 14:17:09,15.08840768,0.0001135,53.218,306.284,98.6992,261.4129,9.931e-05,1.293e-05,0.0,0 STARLINK-5439,1 54783U 22175AB  24176.59525310  .00001293  00000-0  99310-4 0  9995,2 54783  53.2180 306.2840 0001135  98.6992 261.4129 15.08840768 86066,6917.878,95.438,540.528,538.958,0.0
54783.0,STARLINK-5439,PAYLOAD,2024-06-25 12:32:33,15.08839522,0.0001101,53.2178,302.1201,90.8794,269.2325,9.7166e-05,1.259e-05,0.0,0 STARLINK-5439,1 54783U 22175AB  24177.52261485  .00001259  00000-0  97166-4 0  9998,2 54783  53.2178 302.1201 0001101  90.8794 269.2325 15.08839522 84042,6917.882,95.438,540.509,538.985,0.0
54783.0,STARLINK-5439,PAYLOAD,2024-06-25 14:07:57,15.08839303,0.0001102,53.2179,301.8229,91.4722,268.6397,9.2933e-05,1.192e-05,0.0,0 STARLINK-5439,1 54783U 22175AB  24177.58885512  .00001192  00000-0  92933-4 0  9990,2 54783  53.2179 301.8229 0001102  91.4722 268.6397 15.08839303 86218,6917.883,95.438,540.51,538.985,0.0
54783.0,STARLINK-5439,PAYLOAD,2024-06-25 15:43:20,15.08840611,0.0001083,53.2175,301.5241,78.356,281.7554,9.8613e-05,1.282e-05,0.0,0 STARLINK-5439,1 54783U 22175AB  24177.65509444  .00001282  00000-0  98613-4 0  9996,2 54783  53.2175 301.5241 0001083  78.3560 281.7554 15.08840611 86223,6917.879,95.438,540.493,538.994,0.0
54783.0,STARLINK-5439,PAYLOAD,2024-06-26 07:37:11,15.08839674,0.000115,53.2173,298.5559,71.0031,289.1086,6.9211e-05,8.14e-06,0.0,0 STARLINK-5439,1 54783U 22175AB  24178.31749681  .00000814  00000-0  69211-4 0  9991,2 54783  53.2173 298.5559 0001150  71.0031 289.1086 15.08839674 86326,6917.881,95.438,540.542,538.951,0.0
54783.0,STARLINK-5439,PAYLOAD,2024-06-27 12:14:08,15.08842642,0.000135,53.2168,293.2028,78.6785,281.4359,8.7208e-05,1.1e-05,0.0,0 STARLINK-5439,1 54783U 22175AB  24179.50981597  .00001100  00000-0  87208-4 0  9992,2 54783  53.2168 293.2028 0001350  78.6785 281.4359 15.08842642 84341,6917.872,95.437,540.671,538.803,0.0
54783.0,STARLINK-5439,PAYLOAD,2024-06-27 15:24:54,15.08842335,0.0001137,53.2165,292.6086,91.1114,269.0008,0.00012261,1.664e-05,0.0,0 STARLINK-5439,1 54783U 22175AB  24179.64229524  .00001664  00000-0  12261-3 0  9993,2 54783  53.2165 292.6086 0001137  91.1114 269.0008 15.08842335 86528,6917.873,95.437,540.525,538.952,0.0
54783.0,STARLINK-5439,PAYLOAD,2024-06-28 13:40:18,15.08837733,0.0001228,53.2148,288.4442,95.9525,264.1607,0.00013019,1.785e-05,0.0,0 STARLINK-5439,1 54783U 22175AB  24180.56965866  .00001785  00000-0  13019-3 0  9998,2 54783  53.2148 288.4442 0001228  95.9525 264.1607 15.08837733 84500,6917.887,95.438,540.602,538.903,0.0
54783.0,STARLINK-5439,PAYLOAD,2024-06-29 00:47:59,15.08859436,0.0001065,53.2167,286.3626,89.7918,270.3196,0.0002983,4.465e-05,0.0,0 STARLINK-5439,1 54783U 22175AB  24181.03332527  .00004465  00000-0  29830-3 0  9999,2 54783  53.2167 286.3626 0001065  89.7918 270.3196 15.08859436 84571,6917.821,95.436,540.423,538.949,0.0
54783.0,STARLINK-5439,PAYLOAD,2024-06-29 13:31:05,15.08836901,0.0001421,53.2161,283.9841,82.6447,277.4707,-1.9593e-05,-6e-06,0.0,0 STARLINK-5439,1 54783U 22175AB  24181.56325688 -.00000600  00000-0 -19593-4 0  9992,2 54783  53.2161 283.9841 0001421  82.6447 277.4707 15.08836901 84659,6917.89,95.438,540.738,538.772,0.0
54783.0,STARLINK-5439,PAYLOAD,2024-06-30 13:21:52,15.08837698,0.0001151,53.2158,279.5209,82.8975,277.2148,0.00010152,1.328e-05,0.0,0 STARLINK-5439,1 54783U 22175AB  24182.55685956  .00001328  00000-0  10152-3 0  9996,2 54783  53.2158 279.5209 0001151  82.8975 277.2148 15.08837698 86969,6917.887,95.438,540.549,538.956,0.0
54783.0,STARLINK-5439,PAYLOAD,2024-06-30 16:32:38,15.08840769,0.0001225,53.2163,278.927,81.3039,278.8092,-2.0388e-05,-6.12e-06,0.0,0 STARLINK-5439,1 54783U 22175AB  24182.68933789 -.00000612  00000-0 -20388-4 0  9990,2 54783  53.2163 278.9270 0001225  81.3039 278.8092 15.08840769 84824,6917.878,95.438,540.59,538.896,0.0
54783.0,STARLINK-5439,PAYLOAD,2024-06-30 22:54:10,15.08851827,0.0001164,53.2166,277.741,82.0139,278.0985,0.00014272,1.985e-05,0.0,0 STARLINK-5439,1 54783U 22175AB  24182.95429159  .00001985  00000-0  14272-3 0  9997,2 54783  53.2166 277.7410 0001164  82.0139 278.0985 15.08851827 84865,6917.844,95.437,540.514,538.904,0.0
54783.0,STARLINK-5439,PAYLOAD,2024-07-01 13:12:40,15.08829994,0.0001388,53.2164,275.0661,88.5449,271.5702,0.00012063,1.632e-05,0.0,0 STARLINK-5439,1 54783U 22175AB  24183.55046726  .00001632  00000-0  12063-3 0  9994,2 54783  53.2164 275.0661 0001388  88.5449 271.5702 15.08829994 84950,6917.911,95.438,540.736,538.816,0.0
54783.0,STARLINK-5439,PAYLOAD,2024-07-02 13:03:27,15.08833641,0.0001304,53.2165,270.6051,100.7157,259.3982,3.4542e-05,2.62e-06,0.0,0 STARLINK-5439,1 54783U 22175AB  24184.54406746  .00000262  00000-0  34542-4 0  9991,2 54783  53.2165 270.6051 0001304 100.7157 259.3982 15.08833641 87261,6917.9,95.438,540.667,538.863,0.0
54783.0,STARLINK-5439,PAYLOAD,2024-07-03 04:57:18,15.08843858,0.000124,53.2166,267.6307,100.1994,259.9138,0.00034426,5.196e-05,0.0,0 STARLINK-5439,1 54783U 22175AB  24185.20646633  .00005196  00000-0  34426-3 0  9997,2 54783  53.2166 267.6307 0001240 100.1994 259.9138 15.08843858 85206,6917.869,95.437,540.591,538.876,0.0
54783.0,STARLINK-5439,PAYLOAD,2024-07-03 22:26:32,15.08862809,0.0001067,53.2144,264.3569,68.5153,291.5953,0.00074093,0.00011531,0.0,0 STARLINK-5439,1 54783U 22175AB  24185.93510103  .00011531  00000-0  74093-3 0  9993,2 54783  53.2144 264.3569 0001067  68.5153 291.5953 15.08862809 87472,6917.811,95.436,540.414,538.938,0.0
54783.0,STARLINK-5439,PAYLOAD,2024-07-04 11:09:38,15.08838464,0.000116,53.2148,261.9791,77.7374,282.3748,-5.167e-05,-1.11e-05,0.0,0 STARLINK-5439,1 54783U 22175AB  24186.46502461 -.00001110  00000-0 -51670-4 0  9991,2 54783  53.2148 261.9791 0001160  77.7374 282.3748 15.08838464 85396,6917.885,95.438,540.553,538.948,0.0
54783.0,STARLINK-5439,PAYLOAD,2024-07-04 14:20:24,15.08843264,0.0001224,53.2152,261.3845,77.3003,282.8126,0.0002483,3.666e-05,0.0,0 STARLINK-5439,1 54783U 22175AB  24186.59750428  .00003666  00000-0  24830-3 0  9996,2 54783  53.2152 261.3845 0001224  77.3003 282.8126 15.08843264 87572,6917.87,95.437,540.582,538.889,0.0
